[{"OBJECT_NAME":"STARLINK-31208","OBJECT_ID":"2024-038Q","EPOCH":"2026-03-08T21:56:06.234720","MEAN_MOTION":15.27576868,"ECCENTRICITY":0.00011699,"INCLINATION":43.0025,"RA_OF_ASC_NODE":31.8631,"ARG_OF_PERICENTER":253.0933,"MEAN_ANOMALY":106.979,"EPHEMERIS_TYPE":0,"CLASSIFICATION_TYPE":"U","NORAD_CAT_ID":59037,"ELEMENT_SET_NO":999,"REV_AT_EPOCH":11469,"BSTAR":-2.4145218e-5,"MEAN_MOTION_DOT":-9.26e-6,"MEAN_MOTION_DDOT":0},{"OBJECT_NAME":"TRANSPORTER-12 OBJECT BT","OBJECT_ID":"2025-009BT","EPOCH":"2026-03-09T17:08:24.281088","MEAN_MOTION":15.27872239,"ECCENTRICITY":0.00036816,"INCLINATION":97.4094,"RA_OF_ASC_NODE":151.5992,"ARG_OF_PERICENTER":313.5044,"MEAN_ANOMALY":46.5889,"EPHEMERIS_TYPE":0,"CLASSIFICATION_TYPE":"U","NORAD_CAT_ID":62674,"ELEMENT_SET_NO":999,"REV_AT_EPOCH":12136,"BSTAR":0.000510288,"MEAN_MOTION_DOT":0.00013824,"MEAN_MOTION_DDOT":0}]
